NORAD_CAT_ID,OBJECT_NAME,OBJECT_TYPE,EPOCH,MEAN_MOTION,ECCENTRICITY,INCLINATION,RA_OF_ASC_NODE,ARG_OF_PERICENTER,MEAN_ANOMALY,BSTAR,MEAN_MOTION_DOT,MEAN_MOTION_DDOT,TLE_LINE0,TLE_LINE1,TLE_LINE2,SEMIMAJOR_AXIS,PERIOD,APOGEE,PERIGEE,DECAYED
53396.0,STARLINK-4524,PAYLOAD,2023-06-12 15:59:59,15.08838696,0.0001049,53.2168,297.8865,95.4289,264.6823,9.892e-05,1.287e-05,0.0,0 STARLINK-4524,1 53396U 22097J   23163.66666398  .00001287  00000-0  98920-4 0  9991,2 53396  53.2168 297.8865 0001049  95.4289 264.6823 15.08838696 46903,6917.884,95.438,540.475,539.024,0.0
53396.0,STARLINK-4524,PAYLOAD,2023-06-13 11:04:37,15.08833895,9.24e-05,53.2167,294.3196,90.014,270.0958,1.7279e-05,-1.3e-07,0.0,0 STARLINK-4524,1 53396U 22097J   23164.46155021 -.00000013  00000-0  17279-4 0  9991,2 53396  53.2167 294.3196 0000924  90.0140 270.0958 15.08833895 47029,6917.899,95.438,540.403,539.125,0.0
53396.0,STARLINK-4524,PAYLOAD,2023-06-13 19:01:32,15.08845777,9.42e-05,53.2166,292.832,96.3509,263.7591,7.2666e-05,8.69e-06,0.0,0 STARLINK-4524,1 53396U 22097J   23164.79274134  .00000869  00000-0  72666-4 0  9993,2 53396  53.2166 292.8320 0000942  96.3509 263.7591 15.08845777 47077,6917.863,95.437,540.379,539.076,0.0
53396.0,STARLINK-4524,PAYLOAD,2023-06-14 10:55:24,15.08840574,7.22e-05,53.2168,289.8571,94.5657,265.5418,2.4546e-05,1.03e-06,0.0,0 STARLINK-4524,1 53396U 22097J   23165.45514740  .00000103  00000-0  24546-4 0  9992,2 53396  53.2168 289.8571 0000722  94.5657 265.5418 15.08840574 47172,6917.879,95.438,540.243,539.244,0.0
53396.0,STARLINK-4524,PAYLOAD,2023-06-14 18:52:20,15.08843863,7.76e-05,53.217,288.3683,90.4806,269.6275,3.5653e-05,2.8e-06,0.0,0 STARLINK-4524,1 53396U 22097J   23165.78634463  .00000280  00000-0  35653-4 0  9990,2 53396  53.2170 288.3683 0000776  90.4806 269.6275 15.08843863 47713,6917.869,95.437,540.27,539.197,0.0
53396.0,STARLINK-4524,PAYLOAD,2023-06-15 07:35:25,15.08832569,9.63e-05,53.2165,285.9898,106.0249,254.0849,7.488e-05,9.04e-06,0.0,0 STARLINK-4524,1 53396U 22097J   23166.31627220  .00000904  00000-0  74880-4 0  9991,2 53396  53.2165 285.9898 0000963 106.0249 254.0849 15.08832569 47302,6917.903,95.438,540.434,539.102,0.0
53396.0,STARLINK-4524,PAYLOAD,2023-06-15 12:21:35,15.08834728,7.45e-05,53.2164,285.0973,106.3704,253.737,0.00013083,1.795e-05,0.0,0 STARLINK-4524,1 53396U 22097J   23166.51498971  .00001795  00000-0  13083-3 0  9998,2 53396  53.2164 285.0973 0000745 106.3704 253.7370 15.08834728 47824,6917.897,95.438,540.277,539.246,0.0
53396.0,STARLINK-4524,PAYLOAD,2023-06-15 17:07:43,15.08855743,8.03e-05,53.2168,284.2056,113.2083,246.8994,-9.7015e-05,-1.832e-05,0.0,0 STARLINK-4524,1 53396U 22097J   23166.71370159 -.00001832  00000-0 -97015-4 0  9999,2 53396  53.2168 284.2056 0000803 113.2083 246.8994 15.08855743 47367,6917.832,95.437,540.253,539.142,0.0
53396.0,STARLINK-4524,PAYLOAD,2023-06-16 01:04:39,15.08845189,8.31e-05,53.2169,282.7199,68.7996,291.3085,4.1478e-05,3.73e-06,0.0,0 STARLINK-4524,1 53396U 22097J   23167.04490582  .00000373  00000-0  41478-4 0  9998,2 53396  53.2169 282.7199 0000831  68.7996 291.3085 15.08845189 47412,6917.865,95.437,540.304,539.155,0.0
53396.0,STARLINK-4524,PAYLOAD,2023-06-16 12:12:21,15.08851965,7.37e-05,53.2169,280.6381,90.9,269.2076,0.00015352,2.157e-05,0.0,0 STARLINK-4524,1 53396U 22097J   23167.50857804  .00002157  00000-0  15352-3 0  9996,2 53396  53.2169 280.6381 0000737  90.9000 269.2076 15.08851965 47974,6917.844,95.437,540.219,539.199,0.0
53396.0,STARLINK-4524,PAYLOAD,2023-06-16 13:47:43,15.08856816,8.93e-05,53.2163,280.3396,96.6882,263.4212,0.00021636,3.159e-05,0.0,0 STARLINK-4524,1 53396U 22097J   23167.57481376  .00003159  00000-0  21636-3 0  9995,2 53396  53.2163 280.3396 0000893  96.6882 263.4212 15.08856816 47490,6917.829,95.436,540.312,539.076,0.0
53396.0,STARLINK-4524,PAYLOAD,2023-06-16 16:58:30,15.08863181,7.67e-05,53.216,279.7451,93.6149,266.493,0.00037432,5.678e-05,0.0,0 STARLINK-4524,1 53396U 22097J   23167.70729345  .00005678  00000-0  37432-3 0  9990,2 53396  53.2160 279.7451 0000767  93.6149 266.4930 15.08863181 48005,6917.81,95.436,540.205,539.144,0.0
53396.0,STARLINK-4524,PAYLOAD,2023-06-17 00:55:27,15.08836976,8.87e-05,53.2161,278.2593,94.8082,265.3011,6.3634e-05,7.25e-06,0.0,0 STARLINK-4524,1 53396U 22097J   23168.03850704  .00000725  00000-0  63634-4 0  9993,2 53396  53.2161 278.2593 0000887  94.8082 265.3011 15.08836976 47569,6917.89,95.438,540.368,539.141,0.0
53396.0,STARLINK-4524,PAYLOAD,2023-06-17 13:38:32,15.08823187,7.28e-05,53.2161,275.8805,103.8507,256.2566,-0.00014373,-2.573e-05,0.0,0 STARLINK-4524,1 53396U 22097J   23168.56843733 -.00002573  00000-0 -14373-3 0  9995,2 53396  53.2161 275.8805 0000728 103.8507 256.2566 15.08823187 48133,6917.932,95.439,540.3,539.293,0.0
53396.0,STARLINK-4524,PAYLOAD,2023-06-18 00:46:14,15.08834147,8.27e-05,53.2161,273.7989,103.2104,256.898,4.0945e-05,3.64e-06,0.0,0 STARLINK-4524,1 53396U 22097J   23169.03211404  .00000364  00000-0  40945-4 0  9991,2 53396  53.2161 273.7989 0000827 103.2104 256.8980 15.08834147 47717,6917.898,95.438,540.335,539.191,0.0
53396.0,STARLINK-4524,PAYLOAD,2023-06-18 13:29:19,15.08849629,7.76e-05,53.2157,271.4202,103.5218,256.586,0.00091105,0.00014245,0.0,0 STARLINK-4524,1 53396U 22097J   23169.56203425  .00014245  00000-0  91105-3 0  9999,2 53396  53.2157 271.4202 0000776 103.5218 256.5860 15.08849629 48285,6917.851,95.437,540.253,539.179,0.0
53396.0,STARLINK-4524,PAYLOAD,2023-06-18 16:40:05,15.08855303,6.98e-05,53.216,270.8261,98.3864,261.7207,0.00096716,0.00015144,0.0,0 STARLINK-4524,1 53396U 22097J   23169.69451329  .00015144  00000-0  96716-3 0  9993,2 53396  53.2160 270.8261 0000698  98.3864 261.7207 15.08855303 47815,6917.834,95.437,540.181,539.216,0.0
53396.0,STARLINK-4524,PAYLOAD,2023-06-19 10:09:20,15.08859995,4.63e-05,53.2161,267.5551,87.67,272.4345,0.00080716,0.00012588,0.0,0 STARLINK-4524,1 53396U 22097J   23170.42315060  .00012588  00000-0  80716-3 0  9999,2 53396  53.2161 267.5551 0000463  87.6700 272.4345 15.08859995 47926,6917.819,95.436,540.005,539.364,0.0
53396.0,STARLINK-4524,PAYLOAD,2023-06-19 13:20:06,15.08858178,5.9e-05,53.2161,266.9603,74.6625,285.4432,0.0007128,0.0001108,0.0,0 STARLINK-4524,1 53396U 22097J   23170.55563044  .00011080  00000-0  71280-3 0  9992,2 53396  53.2161 266.9603 0000590  74.6625 285.4432 15.08858178 48430,6917.825,95.436,540.098,539.282,0.0
53396.0,STARLINK-4524,PAYLOAD,2023-06-19 22:52:25,15.08853905,4.56e-05,53.216,265.1761,67.423,292.6811,0.00075349,0.00011729,0.0,0 STARLINK-4524,1 53396U 22097J   23170.95306911  .00011729  00000-0  75349-3 0  9994,2 53396  53.2160 265.1761 0000456  67.4230 292.6811 15.08853905 48005,6917.838,95.437,540.018,539.387,0.0
53396.0,STARLINK-4524,PAYLOAD,2023-06-20 06:49:21,15.08847884,8.69e-05,53.2163,263.6902,88.6661,271.4431,0.00071048,0.0001104,0.0,0 STARLINK-4524,1 53396U 22097J   23171.28427152  .00011040  00000-0  71048-3 0  9990,2 53396  53.2163 263.6902 0000869  88.6661 271.4431 15.08847884 48056,6917.856,95.437,540.322,539.12,0.0
53396.0,STARLINK-4524,PAYLOAD,2023-06-20 13:10:53,15.08846162,8.54e-05,53.2167,262.5014,76.6882,283.4206,0.00058396,9.02e-05,0.0,0 STARLINK-4524,1 53396U 22097J   23171.54923193  .00009020  00000-0  58396-3 0  9991,2 53396  53.2167 262.5014 0000854  76.6882 283.4206 15.08846162 48587,6917.862,95.437,540.317,539.136,0.0
53396.0,STARLINK-4524,PAYLOAD,2023-06-20 22:43:12,15.08840336,7.12e-05,53.2152,260.7189,80.8759,279.2314,0.00015634,2.201e-05,0.0,0 STARLINK-4524,1 53396U 22097J   23171.94667249  .00002201  00000-0  15634-3 0  9994,2 53396  53.2152 260.7189 0000712  80.8759 279.2314 15.08840336 48150,6917.879,95.438,540.237,539.252,0.0
53396.0,STARLINK-4524,PAYLOAD,2023-06-21 13:01:40,15.08839408,7.24e-05,53.215,258.0423,72.3305,287.7766,3.7222e-05,3.05e-06,0.0,0 STARLINK-4524,1 53396U 22097J   23172.54283360  .00000305  00000-0  37222-4 0  9990,2 53396  53.2150 258.0423 0000724  72.3305 287.7766 15.08839408 48732,6917.882,95.438,540.248,539.246,0.0
53396.0,STARLINK-4524,PAYLOAD,2023-06-22 09:41:41,15.08838732,7.71e-05,53.2154,254.1772,97.9392,262.1687,7.0876e-05,8.4e-06,0.0,0 STARLINK-4524,1 53396U 22097J   23173.40395564  .00000840  00000-0  70876-4 0  9992,2 53396  53.2154 254.1772 0000771  97.9392 262.1687 15.08838732 48379,6917.884,95.438,540.283,539.216,0.0
53396.0,STARLINK-4524,PAYLOAD,2023-06-23 11:07:51,15.08839721,8.11e-05,53.215,249.4171,98.0748,262.0337,0.00019673,2.845e-05,0.0,0 STARLINK-4524,1 53396U 22097J   23174.46379629  .00002845  00000-0  19673-3 0  9997,2 53396  53.2150 249.4171 0000811  98.0748 262.0337 15.08839721 48535,6917.881,95.438,540.307,539.185,0.0
53396.0,STARLINK-4524,PAYLOAD,2023-06-23 22:15:34,15.08831574,8.15e-05,53.215,247.336,79.7624,280.346,-2.2859e-05,-6.51e-06,0.0,0 STARLINK-4524,1 53396U 22097J   23174.92748243 -.00000651  00000-0 -22859-4 0  9996,2 53396  53.2150 247.3360 0000815  79.7624 280.3460 15.08831574 48601,6917.906,95.438,540.335,539.207,0.0
53396.0,STARLINK-4524,PAYLOAD,2023-06-25 09:14:02,15.08855879,0.0001116,53.2155,240.7918,115.0104,245.1004,0.0003143,4.72e-05,0.0,0 STARLINK-4524,1 53396U 22097J   23176.38475679  .00004720  00000-0  31430-3 0  9991,2 53396  53.2155 240.7918 0001116 115.0104 245.1004 15.08855879 48825,6917.832,95.437,540.469,538.925,0.0
53396.0,STARLINK-4524,PAYLOAD,2023-06-26 09:04:50,15.08850281,0.0001015,53.2147,236.3314,26.5255,333.5789,0.00037577,5.699e-05,0.0,0 STARLINK-4524,1 53396U 22097J   23177.37836062  .00005699  00000-0  37577-3 0  9992,2 53396  53.2147 236.3314 0001015  26.5255 333.5789 15.08850281 48978,6917.849,95.437,540.416,539.012,0.0
53396.0,STARLINK-4524,PAYLOAD,2023-06-27 10:31:00,15.08844316,7.74e-05,53.2153,231.5731,82.8643,277.2437,3.8251e-05,3.21e-06,0.0,0 STARLINK-4524,1 53396U 22097J   23178.43819928  .00000321  00000-0  38251-4 0  9990,2 53396  53.2153 231.5731 0000774  82.8643 277.2437 15.08844316 49137,6917.867,95.437,540.268,539.197,0.0
